[{"OBJECT_NAME":"STARLINK-31888","OBJECT_ID":"2024-093G","EPOCH":"2026-03-09T11:06:43.350336","MEAN_MOTION":15.27559291,"ECCENTRICITY":0.00012047,"INCLINATION":43.0024,"RA_OF_ASC_NODE":209.929,"ARG_OF_PERICENTER":265.3673,"MEAN_ANOMALY":94.7041,"EPHEMERIS_TYPE":0,"CLASSIFICATION_TYPE":"U","NORAD_CAT_ID":59788,"ELEMENT_SET_NO":999,"REV_AT_EPOCH":10266,"BSTAR":-0.00011368532,"MEAN_MOTION_DOT":-3.387e-5,"MEAN_MOTION_DDOT":0},{"OBJECT_NAME":"OBJECT D","OBJECT_ID":"2025-197D","EPOCH":"2026-03-09T23:30:56.303712","MEAN_MOTION":15.25287442,"ECCENTRICITY":0.00144425,"INCLINATION":97.4091,"RA_OF_ASC_NODE":257.3677,"ARG_OF_PERICENTER":3.398,"MEAN_ANOMALY":356.7353,"EPHEMERIS_TYPE":0,"CLASSIFICATION_TYPE":"U","NORAD_CAT_ID":65491,"ELEMENT_SET_NO":999,"REV_AT_EPOCH":2822,"BSTAR":0.00037200129,"MEAN_MOTION_DOT":9.321e-5,"MEAN_MOTION_DDOT":0}]
